[{"id":"38867","name":"INTELSAT 23 (IS-23)","tle1":"1 38867U 12057A   26176.15800063 -.00000275  00000+0  00000+0 0  9995","tle2":"2 38867   0.0151   9.7735 0000095 155.3887 112.0078  1.00272002 50034"},{"id":"39360","name":"FM-6","tle1":"1 39360U 13058A   26176.28805848 -.00000006  00000+0  00000+0 0  9998","tle2":"2 39360   0.0151  52.0712 0001643 128.9913  79.7678  1.00271076 46158"},{"id":"40271","name":"INTELSAT 30 (IS-30)","tle1":"1 40271U 14062A   26176.14967492 -.00000141  00000+0  00000+0 0  9996","tle2":"2 40271   0.0274  54.2798 0001486 340.3838 197.4546  1.00270562  6872"},{"id":"40333","name":"DIRECTV 14","tle1":"1 40333U 14078B   26175.35600175 -.00000118  00000+0  00000+0 0  9990","tle2":"2 40333   0.0116  28.7831 0000238 343.4474 289.2003  1.00271633 42119"},{"id":"40663","name":"DIRECTV 15","tle1":"1 40663U 15026A   26176.23623829 -.00000093  00000+0  00000+0 0  9991","tle2":"2 40663   0.0172  59.6615 0000539 338.7310 217.1511  1.00270330 40542"},{"id":"40664","name":"SKY MEXICO-1","tle1":"1 40664U 15026B   26176.15288160 -.00000225  00000+0  00000+0 0  9995","tle2":"2 40664   0.0187 338.1849 0002517 132.4438 138.9017  1.00271161 40534"},{"id":"40874","name":"INTELSAT 34 (IS-34)","tle1":"1 40874U 15039A   26176.15756728 -.00000276  00000+0  00000+0 0  9998","tle2":"2 40874   0.0096   8.4114 0000478  12.0602 254.0522  1.00270198 39716"},{"id":"41581","name":"INTELSAT 31 (IS-31)","tle1":"1 41581U 16035A   26176.14967492 -.00000141  00000+0  00000+0 0  9993","tle2":"2 41581   0.0127 292.2323 0000678 327.6488 332.2376  1.00270780 36766"},{"id":"41747","name":"INTELSAT 36 (IS-36)","tle1":"1 41747U 16053A   26176.18209406 -.00000015  00000+0  00000+0 0  9995","tle2":"2 41747   0.0128  20.9268 0002042 321.7510  64.7168  1.00272521 36034"},{"id":"41945","name":"INTELSAT 32E (IS-32E)","tle1":"1 41945U 17007B   26176.20669668  .00000000  00000+0  00000+0 0  9991","tle2":"2 41945   0.0266  12.6239 0000324 342.3855 309.5625  1.00267453 34309"},{"id":"42818","name":"INTELSAT 35E (IS-35E)","tle1":"1 42818U 17041A   26176.26648468  .00000000  00000+0  00000+0 0  9990","tle2":"2 42818   0.0247   9.4104 0002379  85.7170 239.7285  1.00269582 32896"},{"id":"42950","name":"INTELSAT 37E (IS-37E)","tle1":"1 42950U 17059A   26176.24627916  .00000000  00000+0  00000+0 0  9999","tle2":"2 42950   0.0263  16.2605 0003094 103.0907 224.6854  1.00268809 32144"},{"id":"43632","name":"AZERSPACE 2 (IS-38)","tle1":"1 43632U 18074A   26176.17741404  .00000146  00000+0  00000+0 0  9997","tle2":"2 43632   0.0035  82.5969 0001586  10.3273 289.3716  1.00272596 28528"},{"id":"43633","name":"HORIZONS-3E","tle1":"1 43633U 18074B   26175.13266341 -.00000024  00000+0  00000+0 0  9991","tle2":"2 43633   0.0084 244.9552 0000546  64.2971 179.8035  1.00270268 28412"},{"id":"44333","name":"AT&T T-16","tle1":"1 44333U 19034A   26175.35600175 -.00000107  00000+0  00000+0 0  9999","tle2":"2 44333   0.0237  70.4808 0000422 236.8286 352.4898  1.00269632 25703"},{"id":"44476","name":"INTELSAT 39 (IS-39)","tle1":"1 44476U 19049B   26175.96691692  .00000043  00000+0  00000+0 0  9992","tle2":"2 44476   0.0066  29.2524 0000944 320.4307 333.4657  1.00271609 25205"},{"id":"46114","name":"GALAXY 30 (G-30)","tle1":"1 46114U 20056C   26175.71600622  .00000046  00000+0  00000+0 0  9992","tle2":"2 46114   0.0130  51.5985 0002220  38.3382 315.6757  1.00270732 21366"},{"id":"54026","name":"GALAXY 33 (G-33)","tle1":"1 54026U 22128A   26176.26829644  .00000089  00000+0  00000+0 0  9990","tle2":"2 54026   0.0144 351.0105 0002024  98.0974 147.8897  1.00270919 13825"},{"id":"54027","name":"GALAXY 34 (G-34)","tle1":"1 54027U 22128B   26175.57264679  .00000066  00000+0  00000+0 0  9990","tle2":"2 54027   0.0145   9.2904 0002066  88.7541 251.8415  1.00277187 13981"},{"id":"54243","name":"GALAXY 31 (G-31)","tle1":"1 54243U 22153A   26176.12475458  .00000000  00000+0  00000+0 0  9997","tle2":"2 54243   0.0172   2.5644 0001511  93.8237 100.7977  1.00272384  7219"},{"id":"54244","name":"GALAXY 32 (G-32)","tle1":"1 54244U 22153B   26175.22367264 -.00000167  00000+0  00000+0 0  9998","tle2":"2 54244   0.0097   2.1596 0002133  41.7877 217.9513  1.00271380 13210"},{"id":"54741","name":"GALAXY 35 (G-35)","tle1":"1 54741U 22170A   26176.15010825 -.00000153  00000+0  00000+0 0  9995","tle2":"2 54741   0.0146 309.3921 0002120 142.0946 142.7336  1.00271509 12972"},{"id":"54742","name":"GALAXY 36 (G-36)","tle1":"1 54742U 22170B   26176.15088826 -.00000176  00000+0  00000+0 0  9997","tle2":"2 54742   0.0343 132.5365 0002829 314.9706 151.1100  1.00271784 12855"},{"id":"57493","name":"GALAXY 37 (G-37)","tle1":"1 57493U 23112A   26175.95392100  .00000057  00000+0  00000+0 0  9997","tle2":"2 57493   0.0160  31.7708 0002245  61.6422  36.1021  1.00273244 10622"}]